<?xml version="1.0" encoding="UTF-8"?>
<ndm xmlns:xsi="http://www.w3.org/2001/XMLSchema-instance" xsi:noNamespaceSchemaLocation="https://sanaregistry.org/r/ndmxml_unqualified/ndmxml-2.0.0-master-2.0.xsd">
<omm id="CCSDS_OMM_VERS" version="2.0">
<header><CREATION_DATE/><ORIGINATOR/></header><body><segment><metadata><OBJECT_NAME>KUIPER-00125</OBJECT_NAME><OBJECT_ID>2025-228H</OBJECT_ID><CENTER_NAME>EARTH</CENTER_NAME><REF_FRAME>TEME</REF_FRAME><TIME_SYSTEM>UTC</TIME_SYSTEM><MEAN_ELEMENT_THEORY>SGP4</MEAN_ELEMENT_THEORY></metadata><data><meanElements><EPOCH>2025-11-26T09:04:49.046880</EPOCH><MEAN_MOTION>15.35648653</MEAN_MOTION><ECCENTRICITY>.0006216</ECCENTRICITY><INCLINATION>51.8765</INCLINATION><RA_OF_ASC_NODE>99.3873</RA_OF_ASC_NODE><ARG_OF_PERICENTER>304.7384</ARG_OF_PERICENTER><MEAN_ANOMALY>55.3016</MEAN_ANOMALY></meanElements><tleParameters><EPHEMERIS_TYPE>0</EPHEMERIS_TYPE><CLASSIFICATION_TYPE>U</CLASSIFICATION_TYPE><NORAD_CAT_ID>65954</NORAD_CAT_ID><ELEMENT_SET_NO>999</ELEMENT_SET_NO><REV_AT_EPOCH>790</REV_AT_EPOCH><BSTAR>.10622E-2</BSTAR><MEAN_MOTION_DOT>.37202E-3</MEAN_MOTION_DOT><MEAN_MOTION_DDOT>0</MEAN_MOTION_DDOT></tleParameters></data></segment></body></omm>
<omm id="CCSDS_OMM_VERS" version="2.0">
<header><CREATION_DATE/><ORIGINATOR/></header><body><segment><metadata><OBJECT_NAME>KUIPER-00126</OBJECT_NAME><OBJECT_ID>2025-228J</OBJECT_ID><CENTER_NAME>EARTH</CENTER_NAME><REF_FRAME>TEME</REF_FRAME><TIME_SYSTEM>UTC</TIME_SYSTEM><MEAN_ELEMENT_THEORY>SGP4</MEAN_ELEMENT_THEORY></metadata><data><meanElements><EPOCH>2025-11-26T10:00:01.998720</EPOCH><MEAN_MOTION>15.14096169</MEAN_MOTION><ECCENTRICITY>.0006214</ECCENTRICITY><INCLINATION>51.8912</INCLINATION><RA_OF_ASC_NODE>100.8176</RA_OF_ASC_NODE><ARG_OF_PERICENTER>312.3252</ARG_OF_PERICENTER><MEAN_ANOMALY>150.8930</MEAN_ANOMALY></meanElements><tleParameters><EPHEMERIS_TYPE>0</EPHEMERIS_TYPE><CLASSIFICATION_TYPE>U</CLASSIFICATION_TYPE><NORAD_CAT_ID>65955</NORAD_CAT_ID><ELEMENT_SET_NO>999</ELEMENT_SET_NO><REV_AT_EPOCH>564</REV_AT_EPOCH><BSTAR>.78281E-3</BSTAR><MEAN_MOTION_DOT>.14156E-3</MEAN_MOTION_DOT><MEAN_MOTION_DDOT>0</MEAN_MOTION_DDOT></tleParameters></data></segment></body></omm>
<omm id="CCSDS_OMM_VERS" version="2.0">
<header><CREATION_DATE/><ORIGINATOR/></header><body><segment><metadata><OBJECT_NAME>KUIPER-00127</OBJECT_NAME><OBJECT_ID>2025-228K</OBJECT_ID><CENTER_NAME>EARTH</CENTER_NAME><REF_FRAME>TEME</REF_FRAME><TIME_SYSTEM>UTC</TIME_SYSTEM><MEAN_ELEMENT_THEORY>SGP4</MEAN_ELEMENT_THEORY></metadata><data><meanElements><EPOCH>2025-11-26T10:00:01.998720</EPOCH><MEAN_MOTION>15.21087250</MEAN_MOTION><ECCENTRICITY>.0004337</ECCENTRICITY><INCLINATION>51.8871</INCLINATION><RA_OF_ASC_NODE>99.9369</RA_OF_ASC_NODE><ARG_OF_PERICENTER>313.1114</ARG_OF_PERICENTER><MEAN_ANOMALY>280.0498</MEAN_ANOMALY></meanElements><tleParameters><EPHEMERIS_TYPE>0</EPHEMERIS_TYPE><CLASSIFICATION_TYPE>U</CLASSIFICATION_TYPE><NORAD_CAT_ID>65956</NORAD_CAT_ID><ELEMENT_SET_NO>999</ELEMENT_SET_NO><REV_AT_EPOCH>577</REV_AT_EPOCH><BSTAR>.10761E-2</BSTAR><MEAN_MOTION_DOT>.24002E-3</MEAN_MOTION_DOT><MEAN_MOTION_DDOT>0</MEAN_MOTION_DDOT></tleParameters></data></segment></body></omm>
<omm id="CCSDS_OMM_VERS" version="2.0">
<header><CREATION_DATE/><ORIGINATOR/></header><body><segment><metadata><OBJECT_NAME>KUIPER-00128</OBJECT_NAME><OBJECT_ID>2025-228L</OBJECT_ID><CENTER_NAME>EARTH</CENTER_NAME><REF_FRAME>TEME</REF_FRAME><TIME_SYSTEM>UTC</TIME_SYSTEM><MEAN_ELEMENT_THEORY>SGP4</MEAN_ELEMENT_THEORY></metadata><data><meanElements><EPOCH>2025-11-26T10:40:24.417120</EPOCH><MEAN_MOTION>15.34610217</MEAN_MOTION><ECCENTRICITY>.0008384</ECCENTRICITY><INCLINATION>51.8781</INCLINATION><RA_OF_ASC_NODE>99.0917</RA_OF_ASC_NODE><ARG_OF_PERICENTER>309.5324</ARG_OF_PERICENTER><MEAN_ANOMALY>50.4920</MEAN_ANOMALY></meanElements><tleParameters><EPHEMERIS_TYPE>0</EPHEMERIS_TYPE><CLASSIFICATION_TYPE>U</CLASSIFICATION_TYPE><NORAD_CAT_ID>65957</NORAD_CAT_ID><ELEMENT_SET_NO>999</ELEMENT_SET_NO><REV_AT_EPOCH>791</REV_AT_EPOCH><BSTAR>-.10271E-1</BSTAR><MEAN_MOTION_DOT>-.335533E-2</MEAN_MOTION_DOT><MEAN_MOTION_DDOT>0</MEAN_MOTION_DDOT></tleParameters></data></segment></body></omm>
<omm id="CCSDS_OMM_VERS" version="2.0">
<header><CREATION_DATE/><ORIGINATOR/></header><body><segment><metadata><OBJECT_NAME>KUIPER-00129</OBJECT_NAME><OBJECT_ID>2025-228M</OBJECT_ID><CENTER_NAME>EARTH</CENTER_NAME><REF_FRAME>TEME</REF_FRAME><TIME_SYSTEM>UTC</TIME_SYSTEM><MEAN_ELEMENT_THEORY>SGP4</MEAN_ELEMENT_THEORY></metadata><data><meanElements><EPOCH>2025-11-26T09:00:29.549664</EPOCH><MEAN_MOTION>15.35680199</MEAN_MOTION><ECCENTRICITY>.0006516</ECCENTRICITY><INCLINATION>51.8788</INCLINATION><RA_OF_ASC_NODE>99.3788</RA_OF_ASC_NODE><ARG_OF_PERICENTER>292.5423</ARG_OF_PERICENTER><MEAN_ANOMALY>67.4873</MEAN_ANOMALY></meanElements><tleParameters><EPHEMERIS_TYPE>0</EPHEMERIS_TYPE><CLASSIFICATION_TYPE>U</CLASSIFICATION_TYPE><NORAD_CAT_ID>65958</NORAD_CAT_ID><ELEMENT_SET_NO>999</ELEMENT_SET_NO><REV_AT_EPOCH>790</REV_AT_EPOCH><BSTAR>.99676E-3</BSTAR><MEAN_MOTION_DOT>.34914E-3</MEAN_MOTION_DOT><MEAN_MOTION_DDOT>0</MEAN_MOTION_DDOT></tleParameters></data></segment></body></omm>
<omm id="CCSDS_OMM_VERS" version="2.0">
<header><CREATION_DATE/><ORIGINATOR/></header><body><segment><metadata><OBJECT_NAME>KUIPER-00130</OBJECT_NAME><OBJECT_ID>2025-228N</OBJECT_ID><CENTER_NAME>EARTH</CENTER_NAME><REF_FRAME>TEME</REF_FRAME><TIME_SYSTEM>UTC</TIME_SYSTEM><MEAN_ELEMENT_THEORY>SGP4</MEAN_ELEMENT_THEORY></metadata><data><meanElements><EPOCH>2025-11-26T12:20:43.967328</EPOCH><MEAN_MOTION>15.35108678</MEAN_MOTION><ECCENTRICITY>.0005417</ECCENTRICITY><INCLINATION>51.8771</INCLINATION><RA_OF_ASC_NODE>98.7982</RA_OF_ASC_NODE><ARG_OF_PERICENTER>313.6930</ARG_OF_PERICENTER><MEAN_ANOMALY>46.3607</MEAN_ANOMALY></meanElements><tleParameters><EPHEMERIS_TYPE>0</EPHEMERIS_TYPE><CLASSIFICATION_TYPE>U</CLASSIFICATION_TYPE><NORAD_CAT_ID>65959</NORAD_CAT_ID><ELEMENT_SET_NO>999</ELEMENT_SET_NO><REV_AT_EPOCH>792</REV_AT_EPOCH><BSTAR>.90209E-3</BSTAR><MEAN_MOTION_DOT>.30963E-3</MEAN_MOTION_DOT><MEAN_MOTION_DDOT>0</MEAN_MOTION_DDOT></tleParameters></data></segment></body></omm>
<omm id="CCSDS_OMM_VERS" version="2.0">
<header><CREATION_DATE/><ORIGINATOR/></header><body><segment><metadata><OBJECT_NAME>KUIPER-00134</OBJECT_NAME><OBJECT_ID>2025-228P</OBJECT_ID><CENTER_NAME>EARTH</CENTER_NAME><REF_FRAME>TEME</REF_FRAME><TIME_SYSTEM>UTC</TIME_SYSTEM><MEAN_ELEMENT_THEORY>SGP4</MEAN_ELEMENT_THEORY></metadata><data><meanElements><EPOCH>2025-11-26T12:22:54.300000</EPOCH><MEAN_MOTION>15.35219618</MEAN_MOTION><ECCENTRICITY>.0005958</ECCENTRICITY><INCLINATION>51.8779</INCLINATION><RA_OF_ASC_NODE>98.8086</RA_OF_ASC_NODE><ARG_OF_PERICENTER>311.5396</ARG_OF_PERICENTER><MEAN_ANOMALY>48.5078</MEAN_ANOMALY></meanElements><tleParameters><EPHEMERIS_TYPE>0</EPHEMERIS_TYPE><CLASSIFICATION_TYPE>U</CLASSIFICATION_TYPE><NORAD_CAT_ID>65960</NORAD_CAT_ID><ELEMENT_SET_NO>999</ELEMENT_SET_NO><REV_AT_EPOCH>792</REV_AT_EPOCH><BSTAR>.80673E-3</BSTAR><MEAN_MOTION_DOT>.27739E-3</MEAN_MOTION_DOT><MEAN_MOTION_DDOT>0</MEAN_MOTION_DDOT></tleParameters></data></segment></body></omm>
<omm id="CCSDS_OMM_VERS" version="2.0">
<header><CREATION_DATE/><ORIGINATOR/></header><body><segment><metadata><OBJECT_NAME>KUIPER-00135</OBJECT_NAME><OBJECT_ID>2025-228Q</OBJECT_ID><CENTER_NAME>EARTH</CENTER_NAME><REF_FRAME>TEME</REF_FRAME><TIME_SYSTEM>UTC</TIME_SYSTEM><MEAN_ELEMENT_THEORY>SGP4</MEAN_ELEMENT_THEORY></metadata><data><meanElements><EPOCH>2025-11-26T12:23:27.233952</EPOCH><MEAN_MOTION>15.35054112</MEAN_MOTION><ECCENTRICITY>.0004027</ECCENTRICITY><INCLINATION>51.8788</INCLINATION><RA_OF_ASC_NODE>98.8220</RA_OF_ASC_NODE><ARG_OF_PERICENTER>305.6181</ARG_OF_PERICENTER><MEAN_ANOMALY>54.4429</MEAN_ANOMALY></meanElements><tleParameters><EPHEMERIS_TYPE>0</EPHEMERIS_TYPE><CLASSIFICATION_TYPE>U</CLASSIFICATION_TYPE><NORAD_CAT_ID>65961</NORAD_CAT_ID><ELEMENT_SET_NO>999</ELEMENT_SET_NO><REV_AT_EPOCH>792</REV_AT_EPOCH><BSTAR>.54922E-3</BSTAR><MEAN_MOTION_DOT>.18634E-3</MEAN_MOTION_DOT><MEAN_MOTION_DDOT>0</MEAN_MOTION_DDOT></tleParameters></data></segment></body></omm>

</ndm>
