KUIPER-00125            
1 65954U 25228H   25330.37834546  .00037202  00000+0  10622-2 0  9997
2 65954  51.8765  99.3873 0006215 304.7384  55.3016 15.35648653  7907
KUIPER-00126            
1 65955U 25228J   25330.41668980  .00014156  00000+0  78281-3 0  9999
2 65955  51.8912 100.8176 0006214 312.3252 150.8930 15.14096169  5645
KUIPER-00127            
1 65956U 25228K   25330.41668980  .00024002  00000+0  10761-2 0  9999
2 65956  51.8871  99.9369 0004337 313.1114 280.0498 15.21087250  5770
KUIPER-00128            
1 65957U 25228L   25330.44472705 -.00335533  00000+0 -10271-1 0  9992
2 65957  51.8781  99.0917 0008384 309.5324  50.4920 15.34610217  7915
KUIPER-00129            
1 65958U 25228M   25330.37534202  .00034914  00000+0  99676-3 0  9991
2 65958  51.8788  99.3788 0006515 292.5423  67.4873 15.35680199  7908
KUIPER-00130            
1 65959U 25228N   25330.51439777  .00030963  00000+0  90209-3 0  9992
2 65959  51.8771  98.7982 0005417 313.6930  46.3607 15.35108678  7928
KUIPER-00134            
1 65960U 25228P   25330.51590625  .00027739  00000+0  80673-3 0  9995
2 65960  51.8779  98.8086 0005958 311.5396  48.5078 15.35219618  7920
KUIPER-00135            
1 65961U 25228Q   25330.51628743  .00018634  00000+0  54922-3 0  9991
2 65961  51.8788  98.8220 0004027 305.6181  54.4429 15.35054112  7925
